OBJECT_NAME,OBJECT_ID,EPOCH,MEAN_MOTION,ECCENTRICITY,INCLINATION,RA_OF_ASC_NODE,ARG_OF_PERICENTER,MEAN_ANOMALY,EPHEMERIS_TYPE,CLASSIFICATION_TYPE,NORAD_CAT_ID,ELEMENT_SET_NO,REV_AT_EPOCH,BSTAR,MEAN_MOTION_DOT,MEAN_MOTION_DDOT
IONOSFERA-M 2,2024-199B,2026-06-09T11:48:50.391360,14.22756094,.00013476,98.7182,33.6561,45.8273,314.3015,0,U,61736,999,12973,.40130138E-4,.46E-6,0
PRSC-EO1,2025-012A,2026-06-09T14:37:41.840256,15.17673198,.00042041,97.4226,233.2173,286.5817,73.4955,0,U,62725,999,7704,.32339234E-3,.645E-4,0
BIOMASS,2025-090A,2026-06-09T12:48:09.641088,14.67532532,.00013601,98.0742,347.9614,90.5225,269.6136,0,U,63772,999,5956,.13269391E-3,.704E-5,0
GOSAT-GW (IBUKI GW),2025-141A,2026-06-09T14:55:41.357280,14.67552847,.00014366,98.0569,98.0622,84.7117,275.4252,0,U,64694,999,5073,.12306362E-3,.65E-5,0
IONOSFERA-M 3,2025-155A,2026-06-09T13:45:45.608256,14.21485204,.00005436,98.6021,122.6703,172.3076,187.8110,0,U,64876,999,4532,.43728875E-4,.53E-6,0
IONOSFERA-M 4,2025-155B,2026-06-09T14:35:56.966208,14.21487366,.00007838,98.6020,122.6218,117.8439,242.2818,0,U,64877,999,4532,.41176306E-4,.47E-6,0
MICROCARB,2025-156A,2026-06-09T11:17:02.262048,14.72317733,.00151044,97.9831,237.7452,299.2263,60.7434,0,U,64899,999,4683,.81741692E-4,.468E-5,0
CO3D 3,2025-156B,2026-06-09T11:40:22.213344,15.20199107,.00011312,97.4327,239.2902,136.0049,224.1277,0,U,64900,999,4836,.20642136E-3,.4403E-4,0
CO3D 4,2025-156C,2026-06-08T23:02:18.632832,15.20199351,.0000729,97.4332,238.7713,27.5039,332.6234,0,U,64901,999,4828,.16169789E-4,.283E-5,0
CO3D 2,2025-156D,2026-06-09T12:27:21.485952,15.20198535,.00014242,97.4328,239.2213,112.7902,247.3484,0,U,64902,999,4836,.60015558E-3,.12946E-3,0
CO3D 1,2025-156E,2026-06-09T12:27:34.348320,15.20201250,.00011901,97.4327,239.2217,116.1668,243.9690,0,U,64903,999,4836,.19123989E-3,.4074E-4,0
PRSC-S1,2025-164A,2026-06-09T12:10:06.439872,15.06386805,.00075079,41.1314,331.0647,298.2751,61.7305,0,U,65055,999,4727,.302636E-3,.4363E-4,0
SENTINEL-6B,2025-264A,2026-06-09T08:33:05.551200,12.80929844,.00080455,66.0386,151.4434,269.2573,90.7520,0,U,66514,999,2616,.1572402E-3,-.25E-6,0
CAS500-3,2025-274F,2026-06-09T13:13:12.252864,14.88302726,.0006363,97.7447,88.7758,130.2287,229.9488,0,U,66655,999,2901,.1355887E-3,.12E-4,0
CSG-3,2026-001A,2026-06-09T12:04:03.566784,14.82148421,.00013079,97.8886,344.2160,92.0792,268.0571,0,U,67304,999,2332,.4448095E-4,.302E-5,0
PRSC-E03,2026-092A,2026-06-09T15:11:09.166272,15.06631575,.00049508,37.9996,134.2262,311.0408,48.9926,0,U,68835,999,681,.14916155E-3,.2145E-4,0
CAS500-2,2026-100AK,2026-06-09T10:51:50.395104,15.20498388,.00112988,97.4085,58.4409,58.6173,301.6167,0,U,69013,999,563,.28327155E-3,.6132E-4,0
