IONOSFERA-M 2           
1 61736U 24199B   26160.49224990  .00000046  00000+0  40130-4 0  9993
2 61736  98.7182  33.6561 0001347  45.8273 314.3015 14.22756094129737
PRSC-EO1                
1 62725U 25012A   26160.60951204  .00006450  00000+0  32339-3 0  9991
2 62725  97.4226 233.2173 0004204 286.5817  73.4955 15.17673198 77041
BIOMASS                 
1 63772U 25090A   26160.53344492  .00000704  00000+0  13269-3 0  9994
2 63772  98.0742 347.9614 0001360  90.5225 269.6136 14.67532532 59560
GOSAT-GW (IBUKI GW)     
1 64694U 25141A   26160.62200645  .00000650  00000+0  12306-3 0  9997
2 64694  98.0569  98.0622 0001436  84.7117 275.4252 14.67552847 50738
IONOSFERA-M 3           
1 64876U 25155A   26160.57344454  .00000053  00000+0  43729-4 0  9996
2 64876  98.6021 122.6703 0000543 172.3076 187.8110 14.21485204 45329
IONOSFERA-M 4           
1 64877U 25155B   26160.60829822  .00000047  00000+0  41176-4 0  9995
2 64877  98.6020 122.6218 0000783 117.8439 242.2818 14.21487366 45325
MICROCARB               
1 64899U 25156A   26160.47016507  .00000468  00000+0  81742-4 0  9993
2 64899  97.9831 237.7452 0015104 299.2263  60.7434 14.72317733 46832
CO3D 3                  
1 64900U 25156B   26160.48636821  .00004403  00000+0  20642-3 0  9998
2 64900  97.4327 239.2902 0001131 136.0049 224.1277 15.20199107 48360
CO3D 4                  
1 64901U 25156C   26159.95993788  .00000283  00000+0  16170-4 0  9991
2 64901  97.4332 238.7713 0000729  27.5039 332.6234 15.20199351 48286
CO3D 2                  
1 64902U 25156D   26160.51899868  .00012946  00000+0  60016-3 0  9996
2 64902  97.4328 239.2213 0001424 112.7902 247.3484 15.20198535 48363
CO3D 1                  
1 64903U 25156E   26160.51914755  .00004074  00000+0  19124-3 0  9997
2 64903  97.4327 239.2217 0001190 116.1668 243.9690 15.20201250 48364
PRSC-S1                 
1 65055U 25164A   26160.50701898  .00004363  00000+0  30264-3 0  9995
2 65055  41.1314 331.0647 0007507 298.2751  61.7305 15.06386805 47278
SENTINEL-6B             
1 66514U 25264A   26160.35631425 -.00000025  00000+0  15724-3 0  9994
2 66514  66.0386 151.4434 0008045 269.2573  90.7520 12.80929844 26161
CAS500-3                
1 66655U 25274F   26160.55083626  .00001200  00000+0  13559-3 0  9996
2 66655  97.7447  88.7758 0006363 130.2287 229.9488 14.88302726 29017
CSG-3                   
1 67304U 26001A   26160.50281906  .00000302  00000+0  44481-4 0  9994
2 67304  97.8886 344.2160 0001307  92.0792 268.0571 14.82148421 23322
PRSC-E03                
1 68835U 26092A   26160.63274498  .00002145  00000+0  14916-3 0  9992
2 68835  37.9996 134.2262 0004950 311.0408  48.9926 15.06631575  6812
CAS500-2                
1 69013U 26100AK  26160.45266661  .00006132  00000+0  28327-3 0  9995
2 69013  97.4085  58.4409 0011298  58.6173 301.6167 15.20498388  5631
